NORAD_CAT_ID,OBJECT_NAME,OBJECT_TYPE,EPOCH,MEAN_MOTION,ECCENTRICITY,INCLINATION,RA_OF_ASC_NODE,ARG_OF_PERICENTER,MEAN_ANOMALY,BSTAR,MEAN_MOTION_DOT,MEAN_MOTION_DDOT,TLE_LINE0,TLE_LINE1,TLE_LINE2,SEMIMAJOR_AXIS,PERIOD,APOGEE,PERIGEE,DECAYED
56452.0,STARLINK-5986,PAYLOAD,2023-07-13 18:00:00,15.01885395,0.0003333,70.0011,70.2348,269.6118,71.0544,-0.081002,-0.00986712,0.0,0 STARLINK-5986,1 56452U 23064E   23194.75001157 -.00986712  00000-0 -81002-1 0  9999,2 56452  70.0011  70.2348 0003333 269.6118  71.0544 15.01885395 10313,6939.22,95.879,563.398,558.772,0.0
56452.0,STARLINK-5986,PAYLOAD,2023-07-14 04:00:01,15.01055413,0.000327,70.0006,69.1791,277.7153,154.5308,-0.079862,-0.00954007,0.0,0 STARLINK-5986,1 56452U 23064E   23195.16668981 -.00954007  00000-0 -79862-1 0  9992,2 56452  70.0006  69.1791 0003270 277.7153 154.5308 15.01055413 10376,6941.778,95.933,565.912,561.373,0.0
56452.0,STARLINK-5986,PAYLOAD,2023-07-14 22:00:00,14.99382266,0.0003211,70.0007,67.2824,273.8479,248.026,-0.011551,-0.0013897,0.0,0 STARLINK-5986,1 56452U 23064E   23195.91667824 -.00138970  00000-0 -11551-1 0  9994,2 56452  70.0007  67.2824 0003211 273.8479 248.0260 14.99382266 10489,6946.941,96.04,571.036,566.575,0.0
56452.0,STARLINK-5986,PAYLOAD,2023-07-15 06:00:02,14.9931963,0.0003075,70.0004,66.4406,274.5527,246.061,-0.0041792,-0.00050887,0.0,0 STARLINK-5986,1 56452U 23064E   23196.25002315 -.00050887  00000-0 -41792-2 0  9991,2 56452  70.0004  66.4406 0003075 274.5527 246.0610 14.99319630 10531,6947.134,96.044,571.135,566.863,0.0
56452.0,STARLINK-5986,PAYLOAD,2023-07-15 22:00:00,14.99295822,0.0003068,70.0005,64.7571,271.3739,246.4652,3.0986e-05,2.85e-06,0.0,0 STARLINK-5986,1 56452U 23064E   23196.91667824  .00000285  00000-0  30986-4 0  9996,2 56452  70.0005  64.7571 0003068 271.3739 246.4652 14.99295822 10635,6947.208,96.045,571.204,566.941,0.0
56452.0,STARLINK-5986,PAYLOAD,2023-07-17 02:00:01,14.99296485,0.0003191,70.0001,61.8105,272.9433,60.1729,0.00075137,9.111e-05,0.0,0 STARLINK-5986,1 56452U 23064E   23198.08334491  .00009111  00000-0  75137-3 0  9990,2 56452  70.0001  61.8105 0003191 272.9433  60.1729 14.99296485 10819,6947.206,96.045,571.288,566.854,0.0
56452.0,STARLINK-5986,PAYLOAD,2023-07-18 00:32:13,14.99302898,0.0003053,69.9985,59.4386,269.203,90.878,9.8045e-05,1.106e-05,0.0,0 STARLINK-5986,1 56452U 23064E   23199.02237304  .00001106  00000-0  98045-4 0  9990,2 56452  69.9985  59.4386 0003053 269.2030  90.8780 14.99302898 10958,6947.186,96.045,571.172,566.93,0.0
56452.0,STARLINK-5986,PAYLOAD,2023-07-18 19:45:05,14.99308422,0.0002923,69.9987,57.4167,271.004,89.0785,-0.000245,-3.091e-05,0.0,0 STARLINK-5986,1 56452U 23064E   23199.82298019 -.00003091  00000-0 -24500-3 0  9999,2 56452  69.9987  57.4167 0002923 271.0040  89.0785 14.99308422 11070,6947.169,96.044,571.065,567.003,0.0
56452.0,STARLINK-5986,PAYLOAD,2023-07-21 00:35:28,14.99302096,0.0003126,69.9989,51.8578,268.5372,91.543,8.1323e-05,9.01e-06,0.0,0 STARLINK-5986,1 56452U 23064E   23202.02463047  .00000901  00000-0  81323-4 0  9993,2 56452  69.9989  51.8578 0003126 268.5372  91.5430 14.99302096 11404,6947.188,96.045,571.225,566.882,0.0
56452.0,STARLINK-5986,PAYLOAD,2023-07-24 13:27:18,14.99270626,0.0002852,69.9996,42.9271,273.7577,86.3257,0.00044459,5.346e-05,0.0,0 STARLINK-5986,1 56452U 23064E   23205.56062525  .00005346  00000-0  44459-3 0  9997,2 56452  69.9996  42.9271 0002852 273.7577  86.3257 14.99270626 11573,6947.286,96.047,571.132,567.169,0.0
56452.0,STARLINK-5986,PAYLOAD,2023-07-25 11:52:18,14.99300554,0.0002929,69.9993,40.5688,268.7358,91.3466,-1.5e-10,-9.4e-07,0.0,0 STARLINK-5986,1 56452U 23064E   23206.49465722 -.00000094  00000-0 -15000-9 0  9999,2 56452  69.9993  40.5688 0002929 268.7358  91.3466 14.99300554 12070,6947.193,96.045,571.093,567.023,0.0
56452.0,STARLINK-5986,PAYLOAD,2023-07-26 11:53:23,14.99262718,0.0002804,69.9993,38.0419,274.3453,85.7386,0.00060789,7.345e-05,0.0,0 STARLINK-5986,1 56452U 23064E   23207.49541009  .00007345  00000-0  60789-3 0  9995,2 56452  69.9993  38.0419 0002804 274.3453  85.7386 14.99262718 11868,6947.31,96.047,571.123,567.227,0.0
56452.0,STARLINK-5986,PAYLOAD,2023-07-26 23:05:53,14.99306744,0.0003054,69.9995,36.8628,267.4499,92.6311,-1.5598e-05,-2.85e-06,0.0,0 STARLINK-5986,1 56452U 23064E   23207.96242204 -.00000285  00000-0 -15598-4 0  9999,2 56452  69.9995  36.8628 0003054 267.4499  92.6311 14.99306744 12290,6947.174,96.044,571.161,566.917,0.0
56452.0,STARLINK-5986,PAYLOAD,2023-07-27 05:30:10,14.99297901,0.0003063,69.9995,36.188,268.0348,92.0461,-4.4695e-06,-1.49e-06,0.0,0 STARLINK-5986,1 56452U 23064E   23208.22929390 -.00000149  00000-0 -44695-5 0  9997,2 56452  69.9995  36.1880 0003063 268.0348  92.0461 14.99297901 12332,6947.201,96.045,571.194,566.938,0.0
56452.0,STARLINK-5986,PAYLOAD,2023-07-27 11:54:28,14.99295066,0.0002988,69.9997,35.5147,266.7215,93.3603,-3.4381e-05,-5.14e-06,0.0,0 STARLINK-5986,1 56452U 23064E   23208.49616442 -.00000514  00000-0 -34381-4 0  9993,2 56452  69.9997  35.5147 0002988 266.7215  93.3603 14.99295066 12013,6947.21,96.045,571.151,566.999,0.0
56452.0,STARLINK-5986,PAYLOAD,2023-07-27 18:18:46,14.99290005,0.0002858,69.9993,34.84,267.27,92.8132,-8.2408e-05,-1.102e-05,0.0,0 STARLINK-5986,1 56452U 23064E   23208.76303747 -.00001102  00000-0 -82408-4 0  9991,2 56452  69.9993  34.8400 0002858 267.2700  92.8132 14.99290005 12417,6947.226,96.045,571.076,567.105,0.0
56452.0,STARLINK-5986,PAYLOAD,2023-07-27 21:30:55,14.99287452,0.0003037,69.9995,34.5033,268.0959,91.9853,-0.000123,-1.598e-05,0.0,0 STARLINK-5986,1 56452U 23064E   23208.89647470 -.00001598  00000-0 -12300-3 0  9991,2 56452  69.9995  34.5033 0003037 268.0959  91.9853 14.99287452 12077,6947.234,96.046,571.209,566.989,0.0
56452.0,STARLINK-5986,PAYLOAD,2023-07-28 11:55:33,14.99298676,0.0003136,69.9991,32.9868,271.3499,88.7301,-5.0135e-05,-7.07e-06,0.0,0 STARLINK-5986,1 56452U 23064E   23209.49692007 -.00000707  00000-0 -50135-4 0  9994,2 56452  69.9991  32.9868 0003136 271.3499  88.7301 14.99298676 12169,6947.199,96.045,571.243,566.885,0.0
56452.0,STARLINK-5986,PAYLOAD,2023-07-29 18:20:55,14.99300384,0.0002816,70.0007,29.7853,264.7451,95.3387,0.00014705,1.706e-05,0.0,0 STARLINK-5986,1 56452U 23064E   23210.76453301  .00001706  00000-0  14705-3 0  9998,2 56452  70.0007  29.7853 0002816 264.7451  95.3387 14.99300384 12715,6947.194,96.045,571.015,567.102,0.0
56452.0,STARLINK-5986,PAYLOAD,2023-07-29 21:33:21,14.99088717,0.0002767,69.9998,29.4488,282.2506,77.8343,-0.002132,-0.00025941,0.0,0 STARLINK-5986,1 56452U 23064E   23210.89816105 -.00025941  00000-0 -21320-2 0  9996,2 56452  69.9998  29.4488 0002767 282.2506  77.8343 14.99088717 12735,6947.848,96.058,571.635,567.79,0.0
56452.0,STARLINK-5986,PAYLOAD,2023-07-30 10:22:25,14.98835904,0.0002961,70.0005,28.1023,256.9613,103.1216,-0.0044851,-0.000539,0.0,0 STARLINK-5986,1 56452U 23064E   23211.43223427 -.00053900  00000-0 -44851-2 0  9996,2 56452  70.0005  28.1023 0002961 256.9613 103.1216 14.98835904 12819,6948.629,96.075,572.551,568.436,0.0
56452.0,STARLINK-5986,PAYLOAD,2023-07-30 18:23:03,14.98732013,0.0003339,69.9987,27.2601,269.6593,90.4184,-0.0052152,-0.00062417,0.0,0 STARLINK-5986,1 56452U 23064E   23211.76600843 -.00062417  00000-0 -52152-2 0  9999,2 56452  69.9987  27.2601 0003339 269.6593  90.4184 14.98732013 12869,6948.95,96.081,573.135,568.495,0.0
56452.0,STARLINK-5986,PAYLOAD,2023-07-31 10:24:12,14.98662242,0.0003071,69.9989,25.5768,269.0333,91.0475,-0.0049784,-0.00059503,0.0,0 STARLINK-5986,1 56452U 23064E   23212.43347273 -.00059503  00000-0 -49784-2 0  9998,2 56452  69.9989  25.5768 0003071 269.0333  91.0475 14.98662242 12962,6949.166,96.086,573.165,568.897,0.0
56452.0,STARLINK-5986,PAYLOAD,2023-07-31 18:24:47,14.98632938,0.0003178,69.9991,24.7349,272.7347,87.3448,-0.0047714,-0.0005701,0.0,0 STARLINK-5986,1 56452U 23064E   23212.76721926 -.00057010  00000-0 -47714-2 0  9997,2 56452  69.9991  24.7349 0003178 272.7347  87.3448 14.98632938 13019,6949.256,96.088,573.33,568.913,0.0
56452.0,STARLINK-5986,PAYLOAD,2023-08-01 22:00:00,14.98314914,0.0003117,70.0006,21.8355,274.0064,164.5248,0.0025117,0.00029993,0.0,0 STARLINK-5986,1 56452U 23064E   23213.91667824  .00029993  00000-0  25117-2 0  9991,2 56452  70.0006  21.8355 0003117 274.0064 164.5248 14.98314914 13183,6950.24,96.108,574.271,569.938,0.0
56452.0,STARLINK-5986,PAYLOAD,2023-08-02 10:28:08,14.98329194,0.0002922,69.9994,20.5263,270.7298,89.3526,3.3382e-05,3.05e-06,0.0,0 STARLINK-5986,1 56452U 23064E   23214.43621059  .00000305  00000-0  33382-4 0  9990,2 56452  69.9994  20.5263 0002922 270.7298  89.3526 14.98329194 13263,6950.195,96.107,574.091,570.03,0.0
56452.0,STARLINK-5986,PAYLOAD,2023-08-03 18:30:49,14.98331492,0.0002942,69.9995,17.16,267.6676,92.4146,-5.0984e-05,-7.01e-06,0.0,0 STARLINK-5986,1 56452U 23064E   23215.77141015 -.00000701  00000-0 -50984-4 0  9996,2 56452  69.9995  17.1600 0002942 267.6676  92.4146 14.98331492 13467,6950.188,96.107,574.098,570.009,0.0
56452.0,STARLINK-5986,PAYLOAD,2023-08-03 20:06:56,14.98384225,0.0003224,69.9995,16.9916,263.385,96.6942,-0.00094671,-0.00011387,0.0,0 STARLINK-5986,1 56452U 23064E   23215.83815642 -.00011387  00000-0 -94671-3 0  9999,2 56452  69.9995  16.9916 0003224 263.3850  96.6942 14.98384225 13478,6950.025,96.104,574.131,569.65,0.0
56452.0,STARLINK-5986,PAYLOAD,2023-08-04 10:32:10,14.98329046,0.0002778,69.9999,15.4766,266.6507,93.4335,-6.0623e-05,-8.16e-06,0.0,0 STARLINK-5986,1 56452U 23064E   23216.43901286 -.00000816  00000-0 -60623-4 0  9992,2 56452  69.9999  15.4766 0002778 266.6507  93.4335 14.98329046 13568,6950.196,96.107,573.992,570.13,0.0
56452.0,STARLINK-5986,PAYLOAD,2023-08-05 10:34:11,14.98332679,0.0003107,69.9997,12.9511,267.336,92.7444,3.9494e-05,3.78e-06,0.0,0 STARLINK-5986,1 56452U 23064E   23217.44040729  .00000378  00000-0  39494-4 0  9993,2 56452  69.9997  12.9511 0003107 267.3360  92.7444 14.98332679 13714,6950.185,96.107,574.209,569.89,0.0
